[{"OBJECT_NAME":"S-NET D","OBJECT_ID":"2018-014G","EPOCH":"2026-03-09T16:11:15.224928","MEAN_MOTION":15.15628721,"ECCENTRICITY":0.00088114,"INCLINATION":97.5429,"RA_OF_ASC_NODE":334.1221,"ARG_OF_PERICENTER":15.2475,"MEAN_ANOMALY":344.9021,"EPHEMERIS_TYPE":0,"CLASSIFICATION_TYPE":"U","NORAD_CAT_ID":43186,"ELEMENT_SET_NO":999,"REV_AT_EPOCH":44368,"BSTAR":0.00039706572,"MEAN_MOTION_DOT":7.488e-5,"MEAN_MOTION_DDOT":0},{"OBJECT_NAME":"OBJECT C","OBJECT_ID":"2024-094C","EPOCH":"2026-03-09T23:40:22.800864","MEAN_MOTION":15.16350553,"ECCENTRICITY":0.0005615,"INCLINATION":97.3999,"RA_OF_ASC_NODE":142.6319,"ARG_OF_PERICENTER":209.4203,"MEAN_ANOMALY":150.6715,"EPHEMERIS_TYPE":0,"CLASSIFICATION_TYPE":"U","NORAD_CAT_ID":59807,"ELEMENT_SET_NO":999,"REV_AT_EPOCH":10012,"BSTAR":0.00045742528,"MEAN_MOTION_DOT":8.815e-5,"MEAN_MOTION_DDOT":0}]
